NORAD_CAT_ID,OBJECT_NAME,OBJECT_TYPE,EPOCH,MEAN_MOTION,ECCENTRICITY,INCLINATION,RA_OF_ASC_NODE,ARG_OF_PERICENTER,MEAN_ANOMALY,BSTAR,MEAN_MOTION_DOT,MEAN_MOTION_DDOT,TLE_LINE0,TLE_LINE1,TLE_LINE2,SEMIMAJOR_AXIS,PERIOD,APOGEE,PERIGEE,DECAYED
52865.0,STARLINK-4274,PAYLOAD,2023-10-14 12:06:11,15.08861144,0.0001686,53.2163,1.9644,93.4824,266.6361,0.00018653,2.683e-05,0.0,0 STARLINK-4274,1 52865U 22062AM  23287.50430506  .00002683  00000-0  18653-3 0  9998,2 52865  53.2163   1.9644 0001686  93.4824 266.6361 15.08861144 73506,6917.816,95.436,540.847,538.514,0.0
52865.0,STARLINK-4274,PAYLOAD,2023-10-14 21:38:31,15.08843394,0.0001243,53.2171,0.1786,83.664,276.4494,1.5831e-06,-2.63e-06,0.0,0 STARLINK-4274,1 52865U 22062AM  23287.90175118 -.00000263  00000-0  15831-5 0  9997,2 52865  53.2171   0.1786 0001243  83.6640 276.4494 15.08843394 73568,6917.87,95.437,540.595,538.875,0.0
52865.0,STARLINK-4274,PAYLOAD,2023-10-15 04:00:04,15.08829909,0.000213,53.217,358.9888,92.928,267.1956,-0.00010477,-1.955e-05,0.0,0 STARLINK-4274,1 52865U 22062AM  23288.16672065 -.00001955  00000-0 -10477-3 0  9998,2 52865  53.2170 358.9888 0002130  92.9280 267.1956 15.08829909 74098,6917.911,95.438,541.25,538.303,0.0
52865.0,STARLINK-4274,PAYLOAD,2023-10-15 11:57:00,15.08823298,0.0001501,53.2171,357.5038,105.8614,254.2543,-0.00022337,-3.839e-05,0.0,0 STARLINK-4274,1 52865U 22062AM  23288.49792432 -.00003839  00000-0 -22337-3 0  9996,2 52865  53.2171 357.5038 0001501 105.8614 254.2543 15.08823298 73652,6917.931,95.439,540.835,538.758,0.0
52865.0,STARLINK-4274,PAYLOAD,2023-10-15 21:29:19,15.08831732,0.0001697,53.2184,355.7192,105.6474,254.4706,5.3572e-06,-2.03e-06,0.0,0 STARLINK-4274,1 52865U 22062AM  23288.89536401 -.00000203  00000-0  53572-5 0  9990,2 52865  53.2184 355.7192 0001697 105.6474 254.4706 15.08831732 73717,6917.906,95.438,540.945,538.597,0.0
52865.0,STARLINK-4274,PAYLOAD,2023-10-16 08:37:01,15.08845176,0.0001489,53.2168,353.6372,106.7408,253.3747,0.00086898,0.00013571,0.0,0 STARLINK-4274,1 52865U 22062AM  23289.35904631  .00013571  00000-0  86898-3 0  9992,2 52865  53.2168 353.6372 0001489 106.7408 253.3747 15.08845176 74276,6917.865,95.437,540.76,538.699,0.0
52865.0,STARLINK-4274,PAYLOAD,2023-10-16 11:47:47,15.0885637,0.0001495,53.2166,353.0425,105.5769,254.5389,0.0012812,0.0002017,0.0,0 STARLINK-4274,1 52865U 22062AM  23289.49152537  .00020170  00000-0  12812-2 0  9994,2 52865  53.2166 353.0425 0001495 105.5769 254.5389 15.08856370 73802,6917.83,95.437,540.73,538.661,0.0
52865.0,STARLINK-4274,PAYLOAD,2023-10-17 11:38:34,15.0884766,0.0001491,53.2162,348.5813,94.9254,265.1909,0.00038695,5.877e-05,0.0,0 STARLINK-4274,1 52865U 22062AM  23290.48512479  .00005877  00000-0  38695-3 0  9995,2 52865  53.2162 348.5813 0001491  94.9254 265.1909 15.08847660 74443,6917.857,95.437,540.753,538.691,0.0
52865.0,STARLINK-4274,PAYLOAD,2023-10-17 13:13:57,15.08853637,0.0001513,53.2158,348.2839,94.9181,265.1984,0.00046902,7.187e-05,0.0,0 STARLINK-4274,1 52865U 22062AM  23290.55136195  .00007187  00000-0  46902-3 0  9996,2 52865  53.2158 348.2839 0001513  94.9181 265.1984 15.08853637 73967,6917.839,95.437,540.75,538.657,0.0
52865.0,STARLINK-4274,PAYLOAD,2023-10-17 22:46:16,15.08844537,0.0001542,53.216,346.5006,90.2249,269.892,0.00017003,2.419e-05,0.0,0 STARLINK-4274,1 52865U 22062AM  23290.94880379  .00002419  00000-0  17003-3 0  9992,2 52865  53.2160 346.5006 0001542  90.2249 269.8920 15.08844537 74021,6917.867,95.437,540.798,538.665,0.0
52865.0,STARLINK-4274,PAYLOAD,2023-10-18 13:04:44,15.08854087,0.000157,53.216,343.8225,93.1797,266.9375,0.00027852,4.149e-05,0.0,0 STARLINK-4274,1 52865U 22062AM  23291.54495959  .00004149  00000-0  27852-3 0  9990,2 52865  53.2160 343.8225 0001570  93.1797 266.9375 15.08854087 74602,6917.837,95.437,540.788,538.616,0.0
52865.0,STARLINK-4274,PAYLOAD,2023-10-18 21:01:40,15.08845502,0.0001498,53.2166,342.3351,95.5421,264.5742,0.00017412,2.485e-05,0.0,0 STARLINK-4274,1 52865U 22062AM  23291.87616246  .00002485  00000-0  17412-3 0  9992,2 52865  53.2166 342.3351 0001498  95.5421 264.5742 15.08845502 74166,6917.864,95.437,540.765,538.692,0.0
52865.0,STARLINK-4274,PAYLOAD,2023-10-18 22:37:03,15.08847714,0.0001684,53.2163,342.0412,82.086,278.0323,0.00020513,2.979e-05,0.0,0 STARLINK-4274,1 52865U 22062AM  23291.94240265  .00002979  00000-0  20513-3 0  9998,2 52865  53.2163 342.0412 0001684  82.0860 278.0323 15.08847714 74660,6917.857,95.437,540.887,538.557,0.0
52865.0,STARLINK-4274,PAYLOAD,2023-10-19 09:44:45,15.08848823,0.0001748,53.2154,339.9581,79.4669,280.652,0.000293,4.379e-05,0.0,0 STARLINK-4274,1 52865U 22062AM  23292.40608195  .00004379  00000-0  29300-3 0  9999,2 52865  53.2154 339.9581 0001748  79.4669 280.6520 15.08848823 74244,6917.853,95.437,540.928,538.509,0.0
52865.0,STARLINK-4274,PAYLOAD,2023-10-19 20:52:27,15.08850191,0.0001868,53.2158,337.8787,72.978,287.1417,0.00033134,4.991e-05,0.0,0 STARLINK-4274,1 52865U 22062AM  23292.86976142  .00004991  00000-0  33134-3 0  9999,2 52865  53.2158 337.8787 0001868  72.9780 287.1417 15.08850191 74314,6917.849,95.437,541.006,538.422,0.0
52865.0,STARLINK-4274,PAYLOAD,2023-10-20 12:46:18,15.08844359,0.0001738,53.2173,334.9004,110.0491,250.0688,9.1817e-05,1.174e-05,0.0,0 STARLINK-4274,1 52865U 22062AM  23293.53216065  .00001174  00000-0  91817-4 0  9998,2 52865  53.2173 334.9004 0001738 110.0491 250.0688 15.08844359 74903,6917.867,95.437,540.934,538.53,0.0
52865.0,STARLINK-4274,PAYLOAD,2023-10-21 03:04:47,15.08833519,0.0001711,53.2172,332.2224,112.193,247.9243,5.7828e-05,6.32e-06,0.0,0 STARLINK-4274,1 52865U 22062AM  23294.12832741  .00000632  00000-0  57828-4 0  9991,2 52865  53.2172 332.2224 0001711 112.1930 247.9243 15.08833519 74996,6917.9,95.438,540.949,538.582,0.0
52865.0,STARLINK-4274,PAYLOAD,2023-10-21 09:26:19,15.08841647,0.0001532,53.2163,331.0334,95.5062,264.6104,0.0001631,2.309e-05,0.0,0 STARLINK-4274,1 52865U 22062AM  23294.39328542  .00002309  00000-0  16310-3 0  9992,2 52865  53.2163 331.0334 0001532  95.5062 264.6104 15.08841647 74540,6917.875,95.437,540.8,538.681,0.0
52865.0,STARLINK-4274,PAYLOAD,2023-10-22 09:17:07,15.08836736,0.0001629,53.2168,326.5784,97.4687,262.649,0.00012484,1.699e-05,0.0,0 STARLINK-4274,1 52865U 22062AM  23295.38689030  .00001699  00000-0  12484-3 0  9993,2 52865  53.2168 326.5784 0001629  97.4687 262.6490 15.08836736 75184,6917.89,95.438,540.882,538.628,0.0
52865.0,STARLINK-4274,PAYLOAD,2023-10-22 18:49:26,15.08832523,0.0001654,53.2167,324.7949,101.7012,258.4166,5.4024e-06,-2.02e-06,0.0,0 STARLINK-4274,1 52865U 22062AM  23295.78433356 -.00000202  00000-0  54024-5 0  9993,2 52865  53.2167 324.7949 0001654 101.7012 258.4166 15.08832523 74750,6917.903,95.438,540.912,538.624,0.0
52865.0,STARLINK-4274,PAYLOAD,2023-10-23 07:32:31,15.0883226,0.0001636,53.2165,322.4146,98.0718,262.046,1.867e-05,9e-08,0.0,0 STARLINK-4274,1 52865U 22062AM  23296.31425614  .00000009  00000-0  18670-4 0  9991,2 52865  53.2165 322.4146 0001636  98.0718 262.0460 15.08832260 75323,6917.904,95.438,540.901,538.637,0.0
52865.0,STARLINK-4274,PAYLOAD,2023-10-23 18:40:13,15.08835599,0.000166,53.2174,320.333,95.5571,264.5611,5.9128e-05,6.53e-06,0.0,0 STARLINK-4274,1 52865U 22062AM  23296.77793611  .00000653  00000-0  59128-4 0  9994,2 52865  53.2174 320.3330 0001660  95.5571 264.5611 15.08835599 74907,6917.894,95.438,540.907,538.61,0.0
52865.0,STARLINK-4274,PAYLOAD,2023-10-24 10:34:04,15.08846603,0.0001585,53.2169,317.359,95.1524,264.9649,0.00017528,2.503e-05,0.0,0 STARLINK-4274,1 52865U 22062AM  23297.44033013  .00002503  00000-0  17528-3 0  9995,2 52865  53.2169 317.3590 0001585  95.1524 264.9649 15.08846603 75493,6917.86,95.437,540.822,538.629,0.0
52865.0,STARLINK-4274,PAYLOAD,2023-10-25 10:24:51,15.0884381,0.0001629,53.2174,312.8967,87.9431,272.1748,0.00012192,1.653e-05,0.0,0 STARLINK-4274,1 52865U 22062AM  23298.43393288  .00001653  00000-0  12192-3 0  9995,2 52865  53.2174 312.8967 0001629  87.9431 272.1748 15.08843810 75647,6917.869,95.437,540.861,538.607,0.0
52865.0,STARLINK-4274,PAYLOAD,2023-10-26 10:15:38,15.08847622,0.0001578,53.2162,308.436,89.1346,270.9827,5.886e-05,6.49e-06,0.0,0 STARLINK-4274,1 52865U 22062AM  23299.42752965  .00000649  00000-0  58860-4 0  9993,2 52865  53.2162 308.4360 0001578  89.1346 270.9827 15.08847622 75306,6917.857,95.437,540.814,538.63,0.0
52865.0,STARLINK-4274,PAYLOAD,2023-10-27 03:44:52,15.08847324,0.0001555,53.2157,305.1644,87.0816,273.0354,0.00011069,1.474e-05,0.0,0 STARLINK-4274,1 52865U 22062AM  23300.15616603  .00001474  00000-0  11069-3 0  9990,2 52865  53.2157 305.1644 0001555  87.0816 273.0354 15.08847324 75907,6917.858,95.437,540.799,538.647,0.0
52865.0,STARLINK-4274,PAYLOAD,2023-10-27 10:06:24,15.0885606,0.000154,53.2156,303.9734,99.1217,260.995,0.00016656,2.365e-05,0.0,0 STARLINK-4274,1 52865U 22062AM  23300.42111770  .00002365  00000-0  16656-3 0  9992,2 52865  53.2156 303.9734 0001540  99.1217 260.9950 15.08856060 75943,6917.831,95.437,540.762,538.631,0.0
52865.0,STARLINK-4274,PAYLOAD,2023-10-28 00:24:54,15.08835722,0.0001759,53.2145,301.2979,92.795,267.3244,-5.9844e-05,-1.24e-05,0.0,0 STARLINK-4274,1 52865U 22062AM  23301.01729311 -.00001240  00000-0 -59844-4 0  9994,2 52865  53.2145 301.2979 0001759  92.7950 267.3244 15.08835722 76038,6917.893,95.438,540.975,538.542,0.0
52865.0,STARLINK-4274,PAYLOAD,2023-10-28 09:57:13,15.08833008,0.0001605,53.215,299.5127,95.562,264.5555,-6.7563e-05,-1.363e-05,0.0,0 STARLINK-4274,1 52865U 22062AM  23301.41473578 -.00001363  00000-0 -67563-4 0  9992,2 52865  53.2150 299.5127 0001605  95.5620 264.5555 15.08833008 75604,6917.902,95.438,540.877,538.656,0.0
52865.0,STARLINK-4274,PAYLOAD,2023-10-29 05:01:50,15.08849067,0.0001613,53.2151,295.9438,101.6345,258.4828,0.00015838,2.234e-05,0.0,0 STARLINK-4274,1 52865U 22062AM  23302.20960991  .00002234  00000-0  15838-3 0  9993,2 52865  53.2151 295.9438 0001613 101.6345 258.4828 15.08849067 76217,6917.853,95.437,540.834,538.602,0.0
